{
"type": "FeatureCollection",
"name": "APA_JSON",
"crs": { "type": "name", "properties": { "name": "urn:ogc:def:crs:EPSG::31984" } },
"features": [
{ "type": "Feature", "properties": { "gid": 1, "sigla": "ZOR II", "zona": "Zona de Ocupação Rarefeita I", "area_ha": 52.0194 }, "geometry": { "type": "MultiPolygon", "coordinates": [ [ [ [ 570314.886199999600649, 8567809.684000000357628 ], [ 570252.885200000368059, 8567761.683399999514222 ], [ 570180.8902000002563, 8567772.68129999935627 ], [ 570012.888199999928474, 8567770.681700000539422 ], [ 569990.888199999928474, 8567789.677899999544024 ], [ 569805.88300000037998, 8567782.679300000891089 ], [ 569576.886099999770522, 8567889.678300000727177 ], [ 569451.886400000192225, 8567986.679300000891089 ], [ 569360.884700000286102, 8568045.687699999660254 ], [ 569270.880599999800324, 8568085.6798 ], [ 569172.886400000192225, 8568165.684100000187755 ], [ 569145.881000000052154, 8568220.683299999684095 ], [ 569134.881000000052154, 8568239.67960000038147 ], [ 569074.883899999782443, 8568262.685000000521541 ], [ 569149.880300000309944, 8568350.687699999660254 ], [ 569122.883200000040233, 8568363.685200000181794 ], [ 569158.884899999946356, 8568475.683199999853969 ], [ 569133.88329999987036, 8568599.688799999654293 ], [ 569084.886099999770522, 8568753.688500000163913 ], [ 569260.886599999852479, 8568757.687699999660254 ], [ 569263.888199999928474, 8568937.682399999350309 ], [ 569263.888199999928474, 8568945.6908 ], [ 569162.884100000374019, 8568945.6908 ], [ 569262.88219999987632, 8569155.689500000327826 ], [ 569316.884700000286102, 8569215.687699999660254 ], [ 569364.88399999961257, 8569238.683299999684095 ], [ 569351.888500000350177, 8569197.691199999302626 ], [ 569407.886400000192225, 8569206.689500000327826 ], [ 569504.88300000037998, 8569253.690199999138713 ], [ 569552.882399999536574, 8569343.682600000873208 ], [ 569584.884700000286102, 8569345.692199999466538 ], [ 569600.881799999624491, 8569399.691600000485778 ], [ 569638.887199999764562, 8569397.691999999806285 ], [ 569680.883500000461936, 8569345.692199999466538 ], [ 569710.882100000046194, 8569370.687300000339746 ], [ 569704.887400000356138, 8569379.685499999672174 ], [ 569766.888299999758601, 8569453.690999999642372 ], [ 569791.889899999834597, 8569497.692299999296665 ], [ 569810.888500000350177, 8569547.692500000819564 ], [ 569810.888500000350177, 8569568.688400000333786 ], [ 569824.889999999664724, 8569569.688200000673532 ], [ 569892.885700000450015, 8569527.6864 ], [ 569950.887400000356138, 8569526.686599999666214 ], [ 570028.885400000028312, 8569779.686899999156594 ], [ 569992.883799999952316, 8569788.685100000351667 ], [ 569970.883799999952316, 8569839.685100000351667 ], [ 569971.8898, 8569881.686799999326468 ], [ 569980.885999999940395, 8569881.686799999326468 ], [ 569942.888899999670684, 8569966.690099999308586 ], [ 569890.8902000002563, 8570015.690500000491738 ], [ 569798.882500000298023, 8570082.687400000169873 ], [ 569786.884700000286102, 8570102.693399999290705 ], [ 569730.886800000444055, 8570163.691400000825524 ], [ 569738.885300000198185, 8570185.687100000679493 ], [ 569746.133399999700487, 8570236.687100000679493 ], [ 569750.88300000037998, 8570270.690400000661612 ], [ 569698.884499999694526, 8570305.693499999120831 ], [ 569760.885400000028312, 8570420.690899999812245 ], [ 569757.152599999681115, 8570445.89159999974072 ], [ 569756.276300000026822, 8570445.181199999526143 ], [ 569755.419099999591708, 8570449.456000000238419 ], [ 569744.596199999563396, 8570503.431399999186397 ], [ 569744.227300000376999, 8570533.1535 ], [ 569740.889000000432134, 8570555.694399999454618 ], [ 569759.38370000012219, 8570645.854299999773502 ], [ 569761.305900000035763, 8570655.2248 ], [ 569784.889200000092387, 8570767.692700000479817 ], [ 570050.885599999688566, 8571348.6985 ], [ 570157.257699999958277, 8571378.112700000405312 ], [ 570277.887099999934435, 8571412.695900000631809 ], [ 570343.887299999594688, 8571430.692399999126792 ], [ 570352.891800000332296, 8571408.696699999272823 ], [ 570358.6716, 8571416.034199999645352 ], [ 570358.606200000271201, 8571416.0152000002563 ], [ 570373.811700000427663, 8571436.011299999430776 ], [ 570371.8739, 8571435.571399999782443 ], [ 570380.730000000447035, 8571445.10950000025332 ], [ 570386.114500000141561, 8571452.188100000843406 ], [ 570388.266699999570847, 8571453.227900000289083 ], [ 570393.643099999986589, 8571459.016799999400973 ], [ 570428.82010000012815, 8571507.587200000882149 ], [ 570448.915300000458956, 8571529.362999999895692 ], [ 570554.421699999831617, 8571566.205700000748038 ], [ 570751.398699999786913, 8571638.821000000461936 ], [ 570751.317300000227988, 8571639.011299999430776 ], [ 570753.307199999690056, 8571639.741599999368191 ], [ 570755.736700000241399, 8571641.070800000801682 ], [ 570728.138100000098348, 8571707.69789999909699 ], [ 570781.893099999986589, 8571734.692600000649691 ], [ 570781.893099999986589, 8571779.69370000064373 ], [ 570749.890800000168383, 8571825.694700000807643 ], [ 570911.889899999834597, 8571883.693299999460578 ], [ 570960.886900000274181, 8571891.691700000315905 ], [ 571008.894600000232458, 8571898.700300000607967 ], [ 571038.076899999752641, 8571896.210799999535084 ], [ 571196.892900000326335, 8571882.693399999290705 ], [ 571377.890599999576807, 8571858.698100000619888 ], [ 571397.894999999552965, 8571853.699100000783801 ], [ 571456.894500000402331, 8571856.6985 ], [ 571560.891800000332296, 8571852.699300000444055 ], [ 571740.89159999974072, 8571836.692399999126792 ], [ 572117.894299999810755, 8571480.692399999126792 ], [ 572969.53940000012517, 8572144.121899999678135 ], [ 573760.898699999786913, 8572755.70160000026226 ], [ 574360.903599999845028, 8572930.697200000286102 ], [ 574622.406000000424683, 8572941.695000000298023 ], [ 574680.902400000020862, 8572943.694599999114871 ], [ 574424.900100000202656, 8572626.696900000795722 ], [ 574504.901800000108778, 8572561.699699999764562 ], [ 574406.89919999986887, 8572441.693299999460578 ], [ 574391.809299999848008, 8572431.415400000289083 ], [ 574184.902999999932945, 8572172.69620000012219 ], [ 574263.651399999856949, 8572090.692299999296665 ], [ 574275.459499999880791, 8572080.194399999454618 ], [ 574336.899699999950826, 8572014.697200000286102 ], [ 574392.905899999663234, 8571955.698799999430776 ], [ 574408.020700000226498, 8571863.696900000795722 ], [ 574410.89850000012666, 8571846.700200000777841 ], [ 574547.904099999926984, 8571736.691800000146031 ], [ 574520.519500000402331, 8571717.22580000013113 ], [ 574520.709099999628961, 8571717.065700000151992 ], [ 574525.615399999544024, 8571713.066500000655651 ], [ 574530.670199999585748, 8571708.927300000563264 ], [ 574535.593000000342727, 8571704.908099999651313 ], [ 574540.029299999587238, 8571700.678899999707937 ], [ 574540.400299999862909, 8571700.348999999463558 ], [ 574540.400299999862909, 8571700.289000000804663 ], [ 574540.416799999773502, 8571700.338999999687076 ], [ 574544.539800000376999, 8571696.619699999690056 ], [ 574545.99930000025779, 8571690.650900000706315 ], [ 574545.009800000116229, 8571684.682099999859929 ], [ 574540.622999999672174, 8571680.512900000438094 ], [ 574540.350899999961257, 8571681.332800000905991 ], [ 574539.501500000245869, 8571683.992200000211596 ], [ 574538.685200000181794, 8571690.001000000163913 ], [ 574535.626000000163913, 8571695.349999999627471 ], [ 574529.606499999761581, 8571695.369999999180436 ], [ 574523.364299999549985, 8571694.890100000426173 ], [ 574517.5921, 8571696.92960000038147 ], [ 574518.490899999625981, 8571701.11879999935627 ], [ 574520.082399999722838, 8571706.987600000575185 ], [ 574516.462500000372529, 8571712.026699999347329 ], [ 574512.59499999973923, 8571711.587099999189377 ], [ 574500.094399999827147, 8571702.6985 ], [ 574497.298899999819696, 8571700.658900000154972 ], [ 574496.185800000093877, 8571699.489099999889731 ], [ 574495.427099999971688, 8571699.289200000464916 ], [ 574489.077800000086427, 8571694.670099999755621 ], [ 574489.539599999785423, 8571694.200200000777841 ], [ 574489.729199999943376, 8571691.670700000599027 ], [ 574488.104799999855459, 8571690.350999999791384 ], [ 574485.812400000169873, 8571691.10080000013113 ], [ 574484.935300000011921, 8571691.648499999195337 ], [ 574464.810100000351667, 8571676.963500000536442 ], [ 574467.943500000052154, 8571680.023 ], [ 574463.614400000311434, 8571675.80379999987781 ], [ 574459.013299999758601, 8571671.054700000211596 ], [ 574454.494500000029802, 8571666.895600000396371 ], [ 574450.181900000199676, 8571662.666400000452995 ], [ 574445.638399999588728, 8571658.43720000050962 ], [ 574441.0455, 8571654.57799999974668 ], [ 574436.444199999794364, 8571650.2489 ], [ 574432.082100000232458, 8571645.959599999710917 ], [ 574427.349000000394881, 8571641.720499999821186 ], [ 574422.22829999960959, 8571638.091199999675155 ], [ 574417.594100000336766, 8571634.082000000402331 ], [ 574413.10840000025928, 8571629.7029 ], [ 574408.432900000363588, 8571625.1338 ], [ 574407.937800000421703, 8571624.574100000783801 ], [ 574401.753700000233948, 8571617.3553 ], [ 574403.971800000406802, 8571620.094799999147654 ], [ 574400.104500000365078, 8571615.3257 ], [ 574395.981599999591708, 8571610.82660000026226 ], [ 574398.661500000394881, 8571613.745999999344349 ], [ 574348.9057, 8571555.6974 ], [ 574266.900200000032783, 8571495.699200000613928 ], [ 574266.843100000172853, 8571495.439200000837445 ], [ 574266.842400000430644, 8571494.4594 ], [ 574266.2652000002563, 8571488.46059999987483 ], [ 574265.53139999974519, 8571482.341900000348687 ], [ 574266.479600000195205, 8571476.3531 ], [ 574269.192499999888241, 8571470.714199999347329 ], [ 574272.441499999724329, 8571465.525100000202656 ], [ 574274.519500000402331, 8571459.756300000473857 ], [ 574273.422799999825656, 8571453.667500000447035 ], [ 574272.194099999964237, 8571447.618699999526143 ], [ 574270.42119999974966, 8571441.749900000169873 ], [ 574268.582299999892712, 8571435.970899999141693 ], [ 574266.908400000073016, 8571429.822200000286102 ], [ 574265.572599999606609, 8571423.503399999812245 ], [ 574263.849200000055134, 8571417.534600000828505 ], [ 574259.924200000241399, 8571412.765599999576807 ], [ 574254.539599999785423, 8571410.026000000536442 ], [ 574248.899400000460446, 8571407.966399999335408 ], [ 574243.399299999698997, 8571405.127000000327826 ], [ 574247.769700000062585, 8571407.376599999144673 ], [ 574240.900799999944866, 8571375.692800000309944 ], [ 574192.637600000016391, 8571328.732100000604987 ], [ 574193.660099999979138, 8571330.391699999570847 ], [ 574188.935200000181794, 8571322.743200000375509 ], [ 574181.889999999664724, 8571318.282999999821186 ], [ 574166.902200000360608, 8571303.697000000625849 ], [ 574170.901399999856949, 8571289.6897 ], [ 573864.904099999926984, 8570955.69539999961853 ], [ 573760.898599999956787, 8570955.69539999961853 ], [ 573593.902599999681115, 8570833.689400000497699 ], [ 573485.897699999623001, 8570678.6699 ], [ 573446.902900000102818, 8570646.69620000012219 ], [ 573425.900500000454485, 8570567.691700000315905 ], [ 573376.895100000314415, 8570525.689999999478459 ], [ 573336.902499999850988, 8570456.693499999120831 ], [ 573287.897099999710917, 8570385.6875 ], [ 573285.901600000448525, 8570360.692399999126792 ], [ 573160.901899999938905, 8570217.690500000491738 ], [ 573140.89740000013262, 8570165.6908 ], [ 573091.900200000032783, 8570141.685499999672174 ], [ 573067.896399999968708, 8570079.687699999660254 ], [ 573065.384899999946356, 8570077.771800000220537 ], [ 573065.604000000283122, 8570077.088199999183416 ], [ 573066.238900000229478, 8570072.129100000485778 ], [ 573066.824400000274181, 8570067.170099999755621 ], [ 573067.756199999712408, 8570062.2511 ], [ 573068.597299999557436, 8570057.322000000625849 ], [ 573069.784699999727309, 8570052.472999999299645 ], [ 573071.549300000071526, 8570047.7939 ], [ 573072.926300000399351, 8570042.9748 ], [ 573074.064299999736249, 8570038.105799999088049 ], [ 573075.383600000292063, 8570033.286699999123812 ], [ 573078.599499999545515, 8570029.457499999552965 ], [ 573080.331100000068545, 8570024.758500000461936 ], [ 573080.661000000312924, 8570019.769400000572205 ], [ 573081.436099999584258, 8570014.840299999341369 ], [ 573082.730700000189245, 8570010.011299999430776 ], [ 573084.767500000074506, 8570005.442199999466538 ], [ 573087.867999999783933, 8570001.523 ], [ 573092.106300000101328, 8569998.873500000685453 ], [ 573090.366499999538064, 8569994.184499999508262 ], [ 573089.830500000156462, 8569989.215399999171495 ], [ 573086.359000000171363, 8569985.606100000441074 ], [ 573084.775799999944866, 8569990.355200000107288 ], [ 573082.293700000271201, 8569994.7043999992311 ], [ 573079.968299999833107, 8569999.123500000685453 ], [ 573077.799700000323355, 8570003.63260000012815 ], [ 573075.631000000052154, 8570008.131699999794364 ], [ 573073.957100000232458, 8570012.840700000524521 ], [ 573072.431599999777973, 8570017.5998 ], [ 573069.586799999698997, 8570021.719100000336766 ], [ 573066.189500000327826, 8570025.3783 ], [ 573065.669999999925494, 8570030.357300000265241 ], [ 573064.400100000202656, 8570035.1864 ], [ 573062.44579999987036, 8570039.795399999246001 ], [ 573060.186499999836087, 8570044.244599999859929 ], [ 573057.630199999548495, 8570048.55379999987781 ], [ 573057.069500000216067, 8570053.52280000038445 ], [ 573057.580799999646842, 8570058.491800000891089 ], [ 573057.720999999903142, 8570063.490800000727177 ], [ 573057.267400000244379, 8570068.469799999147654 ], [ 573056.731100000441074, 8570071.17 ], [ 572970.899799999780953, 8570005.692199999466538 ], [ 572758.897699999623001, 8570189.68610000051558 ], [ 572657.893600000068545, 8570074.688699999824166 ], [ 572684.898900000378489, 8569989.685399999842048 ], [ 572642.894199999980628, 8569912.690500000491738 ], [ 572533.891699999570847, 8569891.684699999168515 ], [ 571801.894600000232458, 8569071.685799999162555 ], [ 571801.894600000232458, 8569053.689300000667572 ], [ 571410.890300000086427, 8568877.684000000357628 ], [ 571401.894100000150502, 8568874.684599999338388 ], [ 571146.889499999582767, 8568511.685900000855327 ], [ 571118.894700000062585, 8568501.687899999320507 ], [ 571053.892300000414252, 8568452.6875 ], [ 570874.923100000247359, 8568346.068600000813603 ], [ 570780.886900000274181, 8568288.6798 ], [ 570667.893199999816716, 8568210.685100000351667 ], [ 570270.885999999940395, 8567922.681800000369549 ], [ 570314.886199999600649, 8567809.684000000357628 ] ] ] ] } }
]
}
